ONEWEB-0716             
1 55177U 23004AP  24338.86404212  .00000002  00000+0 -28664-4 0  9993
2 55177  87.9089 117.5089 0001620  91.5811 268.5506 13.17649275 93798
ONEWEB-0717             
1 55178U 23004AQ  24338.84715863 -.00000193  00000+0 -53063-3 0  9991
2 55178  87.9087 117.4743 0002054 121.3765 238.7568 13.17649153 93843
ONEWEB-0719             
1 55179U 23004AR  24338.85729220  .00000010  00000+0 -72659-5 0  9996
2 55179  87.9088 117.4572 0001733  93.4037 266.7293 13.17650022 93796
ONEWEB-0530             
1 55796U 23029A   24338.64172360  .00000130  00000+0  28670-3 0  9996
2 55796  87.9266  26.0006 0002376 105.4212 254.7184 13.20770662 87155
ONEWEB-0534             
1 55797U 23029B   24338.70485238  .00000066  00000+0  13147-3 0  9996
2 55797  87.9267  25.9952 0001848  94.3458 265.7887 13.20774192 87161
ONEWEB-0556             
1 55798U 23029C   24338.63541473  .00000032  00000+0  47007-4 0  9999
2 55798  87.9270  26.0018 0002726  89.9469 270.1977 13.20772702 87153
ONEWEB-0562             
1 55799U 23029D   24338.69855262  .00000076  00000+0  15464-3 0  9999
2 55799  87.9268  25.9810 0002888 101.0210 259.1248 13.20771832 87160
ONEWEB-0563             
1 55800U 23029E   24338.84375101  .00000120  00000+0  26257-3 0  9990
2 55800  87.9268  25.9670 0001783  85.7303 274.4034 13.20771629 87179
